[{"OBJECT_NAME":"COSMOS 2251 DEB","OBJECT_ID":"1993-036BMC","EPOCH":"2026-03-03T16:53:38.458176","MEAN_MOTION":14.34430165,"ECCENTRICITY":0.00288419,"INCLINATION":74.0384,"RA_OF_ASC_NODE":173.9605,"ARG_OF_PERICENTER":234.3912,"MEAN_ANOMALY":125.4553,"EPHEMERIS_TYPE":0,"CLASSIFICATION_TYPE":"U","NORAD_CAT_ID":37499,"ELEMENT_SET_NO":999,"REV_AT_EPOCH":86310,"BSTAR":0.00020978304,"MEAN_MOTION_DOT":5.67e-6,"MEAN_MOTION_DDOT":0},{"OBJECT_NAME":"COSMOS 2251 DEB","OBJECT_ID":"1993-036BNH","EPOCH":"2026-03-02T10:05:22.457184","MEAN_MOTION":14.50835322,"ECCENTRICITY":0.00189741,"INCLINATION":74.0387,"RA_OF_ASC_NODE":332.356,"ARG_OF_PERICENTER":102.0743,"MEAN_ANOMALY":258.2545,"EPHEMERIS_TYPE":0,"CLASSIFICATION_TYPE":"U","NORAD_CAT_ID":37528,"ELEMENT_SET_NO":999,"REV_AT_EPOCH":87086,"BSTAR":0.0004585723,"MEAN_MOTION_DOT":1.784e-5,"MEAN_MOTION_DDOT":0},{"OBJECT_NAME":"COSMOS 2251 DEB","OBJECT_ID":"1993-036BNK","EPOCH":"2026-03-01T01:19:06.277728","MEAN_MOTION":14.34620892,"ECCENTRICITY":0.0027237,"INCLINATION":74.0309,"RA_OF_ASC_NODE":190.1826,"ARG_OF_PERICENTER":236.3663,"MEAN_ANOMALY":244.4638,"EPHEMERIS_TYPE":0,"CLASSIFICATION_TYPE":"U","NORAD_CAT_ID":37530,"ELEMENT_SET_NO":999,"REV_AT_EPOCH":86355,"BSTAR":0.00025486675,"MEAN_MOTION_DOT":6.97e-6,"MEAN_MOTION_DDOT":0},{"OBJECT_NAME":"COSMOS 2251 DEB","OBJECT_ID":"1993-036BNM","EPOCH":"2026-03-02T07:27:48.513888","MEAN_MOTION":14.42560018,"ECCENTRICITY":0.00146993,"INCLINATION":74.0488,"RA_OF_ASC_NODE":68.2344,"ARG_OF_PERICENTER":159.9877,"MEAN_ANOMALY":212.1898,"EPHEMERIS_TYPE":0,"CLASSIFICATION_TYPE":"U","NORAD_CAT_ID":37532,"ELEMENT_SET_NO":999,"REV_AT_EPOCH":86063,"BSTAR":0.00025374803,"MEAN_MOTION_DOT":8.17e-6,"MEAN_MOTION_DDOT":0},{"OBJECT_NAME":"COSMOS 2251 DEB","OBJECT_ID":"1993-036BNN","EPOCH":"2026-02-23T06:29:28.874112","MEAN_MOTION":14.12684231,"ECCENTRICITY":0.0153847,"INCLINATION":74.068,"RA_OF_ASC_NODE":63.8898,"ARG_OF_PERICENTER":103.965,"MEAN_ANOMALY":257.8652,"EPHEMERIS_TYPE":0,"CLASSIFICATION_TYPE":"U","NORAD_CAT_ID":37533,"ELEMENT_SET_NO":999,"REV_AT_EPOCH":63945,"BSTAR":0.0011315,"MEAN_MOTION_DOT":2.324e-5,"MEAN_MOTION_DDOT":0},{"OBJECT_NAME":"COSMOS 2251 DEB","OBJECT_ID":"1993-036BNQ","EPOCH":"2026-03-05T00:18:08.316000","MEAN_MOTION":14.59080776,"ECCENTRICITY":0.00267363,"INCLINATION":74.021,"RA_OF_ASC_NODE":276.6897,"ARG_OF_PERICENTER":31.3975,"MEAN_ANOMALY":118.9826,"EPHEMERIS_TYPE":0,"CLASSIFICATION_TYPE":"U","NORAD_CAT_ID":37535,"ELEMENT_SET_NO":999,"REV_AT_EPOCH":86524,"BSTAR":0.00069360951,"MEAN_MOTION_DOT":3.25e-5,"MEAN_MOTION_DDOT":0},{"OBJECT_NAME":"COSMOS 2251 DEB","OBJECT_ID":"1993-036BNS","EPOCH":"2026-03-01T11:57:14.523264","MEAN_MOTION":14.37608831,"ECCENTRICITY":0.00525586,"INCLINATION":74.0106,"RA_OF_ASC_NODE":119.9614,"ARG_OF_PERICENTER":243.1985,"MEAN_ANOMALY":116.3788,"EPHEMERIS_TYPE":0,"CLASSIFICATION_TYPE":"U","NORAD_CAT_ID":37537,"ELEMENT_SET_NO":999,"REV_AT_EPOCH":86165,"BSTAR":0.00020471453,"MEAN_MOTION_DOT":5.97e-6,"MEAN_MOTION_DDOT":0},{"OBJECT_NAME":"COSMOS 2251 DEB","OBJECT_ID":"1993-036BPB","EPOCH":"2026-03-04T15:28:25.542048","MEAN_MOTION":14.83821694,"ECCENTRICITY":0.000624,"INCLINATION":74.0193,"RA_OF_ASC_NODE":295.958,"ARG_OF_PERICENTER":276.0837,"MEAN_ANOMALY":83.963,"EPHEMERIS_TYPE":0,"CLASSIFICATION_TYPE":"U","NORAD_CAT_ID":37546,"ELEMENT_SET_NO":999,"REV_AT_EPOCH":67101,"BSTAR":0.002317,"MEAN_MOTION_DOT":0.00019237,"MEAN_MOTION_DDOT":0},{"OBJECT_NAME":"COSMOS 2251 DEB","OBJECT_ID":"1993-036BPJ","EPOCH":"2026-03-05T12:55:19.032672","MEAN_MOTION":14.58707578,"ECCENTRICITY":0.0057038,"INCLINATION":74.0066,"RA_OF_ASC_NODE":259.0816,"ARG_OF_PERICENTER":19.2428,"MEAN_ANOMALY":12.132,"EPHEMERIS_TYPE":0,"CLASSIFICATION_TYPE":"U","NORAD_CAT_ID":37959,"ELEMENT_SET_NO":999,"REV_AT_EPOCH":81334,"BSTAR":0.0007056,"MEAN_MOTION_DOT":3.338e-5,"MEAN_MOTION_DDOT":0},{"OBJECT_NAME":"COSMOS 2251 DEB","OBJECT_ID":"1993-036BPK","EPOCH":"2026-03-02T04:47:49.501536","MEAN_MOTION":14.08175884,"ECCENTRICITY":0.0245267,"INCLINATION":74.0589,"RA_OF_ASC_NODE":47.5987,"ARG_OF_PERICENTER":46.9471,"MEAN_ANOMALY":315.1918,"EPHEMERIS_TYPE":0,"CLASSIFICATION_TYPE":"U","NORAD_CAT_ID":37960,"ELEMENT_SET_NO":999,"REV_AT_EPOCH":78524,"BSTAR":0.0014238321,"MEAN_MOTION_DOT":3.179e-5,"MEAN_MOTION_DDOT":0},{"OBJECT_NAME":"COSMOS 2251 DEB","OBJECT_ID":"1993-036BPL","EPOCH":"2026-03-01T03:10:28.610976","MEAN_MOTION":14.58781491,"ECCENTRICITY":0.0037959,"INCLINATION":74.0441,"RA_OF_ASC_NODE":347.9439,"ARG_OF_PERICENTER":47.2201,"MEAN_ANOMALY":313.2146,"EPHEMERIS_TYPE":0,"CLASSIFICATION_TYPE":"U","NORAD_CAT_ID":37961,"ELEMENT_SET_NO":999,"REV_AT_EPOCH":81208,"BSTAR":0.0010829289,"MEAN_MOTION_DOT":5.085e-5,"MEAN_MOTION_DDOT":0},{"OBJECT_NAME":"COSMOS 2251 DEB","OBJECT_ID":"1993-036BPR","EPOCH":"2026-02-24T07:57:21.236256","MEAN_MOTION":15.23776337,"ECCENTRICITY":0.00166824,"INCLINATION":73.9787,"RA_OF_ASC_NODE":76.2838,"ARG_OF_PERICENTER":284.1156,"MEAN_ANOMALY":75.8189,"EPHEMERIS_TYPE":0,"CLASSIFICATION_TYPE":"U","NORAD_CAT_ID":37966,"ELEMENT_SET_NO":999,"REV_AT_EPOCH":86459,"BSTAR":0.0031189174,"MEAN_MOTION_DOT":0.00076101,"MEAN_MOTION_DDOT":0},{"OBJECT_NAME":"COSMOS 2251 DEB","OBJECT_ID":"1993-036BPS","EPOCH":"2026-03-05T10:50:46.350240","MEAN_MOTION":14.41470809,"ECCENTRICITY":0.0147386,"INCLINATION":74.0176,"RA_OF_ASC_NODE":344.0233,"ARG_OF_PERICENTER":103.5219,"MEAN_ANOMALY":258.2407,"EPHEMERIS_TYPE":0,"CLASSIFICATION_TYPE":"U","NORAD_CAT_ID":37967,"ELEMENT_SET_NO":999,"REV_AT_EPOCH":65927,"BSTAR":0.0017092,"MEAN_MOTION_DOT":6.293e-5,"MEAN_MOTION_DDOT":0},{"OBJECT_NAME":"COSMOS 2251 DEB","OBJECT_ID":"1993-036BPT","EPOCH":"2026-03-03T18:02:37.907232","MEAN_MOTION":15.02748901,"ECCENTRICITY":0.00784494,"INCLINATION":73.9982,"RA_OF_ASC_NODE":105.7002,"ARG_OF_PERICENTER":203.8682,"MEAN_ANOMALY":155.8863,"EPHEMERIS_TYPE":0,"CLASSIFICATION_TYPE":"U","NORAD_CAT_ID":37968,"ELEMENT_SET_NO":999,"REV_AT_EPOCH":61435,"BSTAR":0.00086959674,"MEAN_MOTION_DOT":0.0001241,"MEAN_MOTION_DDOT":0},{"OBJECT_NAME":"COSMOS 2251 DEB","OBJECT_ID":"1993-036BPW","EPOCH":"2026-02-28T06:41:42.403200","MEAN_MOTION":14.49706297,"ECCENTRICITY":0.00656378,"INCLINATION":73.9943,"RA_OF_ASC_NODE":255.908,"ARG_OF_PERICENTER":17.6177,"MEAN_ANOMALY":342.7237,"EPHEMERIS_TYPE":0,"CLASSIFICATION_TYPE":"U","NORAD_CAT_ID":37971,"ELEMENT_SET_NO":999,"REV_AT_EPOCH":61801,"BSTAR":0.0012726292,"MEAN_MOTION_DOT":5.01e-5,"MEAN_MOTION_DDOT":0},{"OBJECT_NAME":"COSMOS 2251 DEB","OBJECT_ID":"1993-036BQA","EPOCH":"2026-02-08T04:34:20.118432","MEAN_MOTION":14.79329439,"ECCENTRICITY":0.00859513,"INCLINATION":73.9998,"RA_OF_ASC_NODE":211.0646,"ARG_OF_PERICENTER":187.26,"MEAN_ANOMALY":172.734,"EPHEMERIS_TYPE":0,"CLASSIFICATION_TYPE":"U","NORAD_CAT_ID":37975,"ELEMENT_SET_NO":999,"REV_AT_EPOCH":70594,"BSTAR":0.0042950145,"MEAN_MOTION_DOT":0.00034176,"MEAN_MOTION_DDOT":0}]
