COSMOS 2251 DEB         
1 37499U 93036BMC 26062.70391734  .00000567  00000+0  20978-3 0  9999
2 37499  74.0384 173.9605 0028841 234.3912 125.4553 14.34430165863102
COSMOS 2251 DEB         
1 37528U 93036BNH 26061.42039881  .00001784  00000+0  45857-3 0  9997
2 37528  74.0387 332.3560 0018974 102.0743 258.2545 14.50835322870867
COSMOS 2251 DEB         
1 37530U 93036BNK 26060.05493377  .00000697  00000+0  25487-3 0  9991
2 37530  74.0309 190.1826 0027237 236.3663 244.4638 14.34620892863557
COSMOS 2251 DEB         
1 37532U 93036BNM 26061.31097817  .00000817  00000+0  25375-3 0  9992
2 37532  74.0488  68.2344 0014699 159.9877 212.1898 14.42560018860630
COSMOS 2251 DEB         
1 37533U 93036BNN 26054.27047308  .00002324  00000+0  11315-2 0  9993
2 37533  74.0680  63.8898 0153847 103.9650 257.8652 14.12684231639456
COSMOS 2251 DEB         
1 37535U 93036BNQ 26064.01259625  .00003250  00000+0  69361-3 0  9999
2 37535  74.0210 276.6897 0026736  31.3975 118.9826 14.59080776865243
COSMOS 2251 DEB         
1 37537U 93036BNS 26060.49808476  .00000597  00000+0  20471-3 0  9993
2 37537  74.0106 119.9614 0052558 243.1985 116.3788 14.37608831861654
COSMOS 2251 DEB         
1 37546U 93036BPB 26063.64474007  .00019237  00000+0  23170-2 0  9991
2 37546  74.0193 295.9580 0006240 276.0837  83.9630 14.83821694671014
COSMOS 2251 DEB         
1 37959U 93036BPJ 26064.53841473  .00003338  00000+0  70560-3 0  9994
2 37959  74.0066 259.0816 0057038  19.2428  12.1320 14.58707578813348
COSMOS 2251 DEB         
1 37960U 93036BPK 26061.19987849  .00003179  00000+0  14238-2 0  9995
2 37960  74.0589  47.5987 0245267  46.9471 315.1918 14.08175884785247
COSMOS 2251 DEB         
1 37961U 93036BPL 26060.13227559  .00005085  00000+0  10829-2 0  9994
2 37961  74.0441 347.9439 0037959  47.2201 313.2146 14.58781491812083
COSMOS 2251 DEB         
1 37966U 93036BPR 26055.33149579  .00076101  00000+0  31189-2 0  9999
2 37966  73.9787  76.2838 0016682 284.1156  75.8189 15.23776337864592
COSMOS 2251 DEB         
1 37967U 93036BPS 26064.45192535  .00006293  00000+0  17092-2 0  9995
2 37967  74.0176 344.0233 0147386 103.5219 258.2407 14.41470809659273
COSMOS 2251 DEB         
1 37968U 93036BPT 26062.75182763  .00012410  00000+0  86960-3 0  9998
2 37968  73.9982 105.7002 0078449 203.8682 155.8863 15.02748901614351
COSMOS 2251 DEB         
1 37971U 93036BPW 26059.27896300  .00005010  00000+0  12726-2 0  9990
2 37971  73.9943 255.9080 0065637  17.6177 342.7237 14.49706297618012
COSMOS 2251 DEB         
1 37975U 93036BQA 26039.19051063  .00034176  00000+0  42950-2 0  9999
2 37975  73.9998 211.0646 0085951 187.2600 172.7340 14.79329439705940
